GALAXY 16 (G-16)        
1 29236U 06023A   26156.15633777 -.00000114  00000+0  00000+0 0  9997
2 29236   0.0086 184.7291 0002833 251.9959 134.1481  1.00269008 72856
EUTELSAT 33F            
1 29270U 06032A   26156.28458694  .00000168  00000+0  00000+0 0  9990
2 29270   1.6303  82.3768 0003622 347.4452 319.4450  1.00273595 47189
JCSAT-3A                
1 29272U 06033A   26156.23210491 -.00000332  00000+0  00000+0 0  9993
2 29272   0.0197 298.0147 0002227 141.6441  25.5680  1.00272415 47623
KOREASAT 5 (MUGUNGWHA 5)
1 29349U 06034A   26156.22913045 -.00000346  00000+0  00000+0 0  9998
2 29349   1.7539  83.1288 0001439  29.4847 336.5892  1.00274385 41208
DIRECTV 9S              
1 29494U 06043A   26156.25802527 -.00000101  00000+0  00000+0 0  9993
2 29494   2.3896  81.0447 0005174   4.0075 160.3454  1.00271942 51268
OPTUS D1                
1 29495U 06043B   26156.23687160 -.00000171  00000+0  00000+0 0  9993
2 29495   3.0037  79.8023 0003801 350.3178  60.8251  1.00272524 72006
BADR-4                  
1 29526U 06051A   26155.74309133  .00000167  00000+0  00000+0 0  9997
2 29526   1.9707  81.2738 0007892 161.5231 306.4291  1.00450212 51145
WILDBLUE-1              
1 29643U 06054A   26155.61396689 -.00000038  00000+0  00000+0 0  9996
2 29643   2.7704  80.6387 0001785   5.0378 277.2023  1.00271660 53668
SKYNET 5A               
1 30794U 07007B   26156.18566959 -.00000259  00000+0  00000+0 0  9991
2 30794   5.2713  73.8837 0004079   8.6578 333.1110  1.00268791 70578
ANIK F3                 
1 31102U 07009A   26156.25455858  .00000011  00000+0  00000+0 0  9995
2 31102   1.1661  83.9906 0002814 349.9015 152.7143  1.00270948 46447
ASTRA 1L                
1 31306U 07016A   26156.27314687 -.00000172  00000+0  00000+0 0  9994
2 31306   1.2906  81.6768 0005463   2.3447 243.5318  1.00271216 44865
GALAXY 17 (G-17)        
1 31307U 07016B   26156.23260454 -.00000194  00000+0  00000+0 0  9997
2 31307   2.9415  80.0511 0004938  11.7836 160.5764  1.00272989 69688
INTELSAT 11 (IS-11)     
1 32253U 07044B   26156.17083196 -.00000154  00000+0  00000+0 0  9994
2 32253   3.5338  78.8143 0001684  75.5225 339.3653  0.99053681 68338
WGS F1 (USA 195)        
1 32258U 07046A   26155.48541149 -.00000255  00000+0  00000+0 0  9993
2 32258   0.0505  94.0918 0000570 318.3690 332.7373  1.00272078 52209
SKYNET 5B               
1 32294U 07056B   26156.13378245  .00000151  00000+0  00000+0 0  9996
2 32294   5.2231  73.6448 0003752 356.6926 256.4898  1.00274236 68079
ASTRA 4A                
1 32299U 07057A   26155.99380596  .00000045  00000+0  00000+0 0  9999
2 32299   0.0159 320.3279 0002616 119.0919 176.5927  1.00273538 51522
HORIZONS-2              
1 32388U 07063B   26156.26344016 -.00000242  00000+0  00000+0 0  9993
2 32388   2.5710  80.7714 0004179 352.3843 201.6045  1.00273453 67698
THURAYA-3               
1 32404U 08001A   26156.17872442 -.00000146  00000+0  00000+0 0  9997
2 32404   5.9688  35.7800 0000964 146.7302 222.8514  1.00009968 67376
THOR 5                  
1 32487U 08006A   26156.27791356  .00000000  00000+0  00000+0 0  9996
2 32487   0.0103 339.8362 0002757 107.3224 265.8465  1.00270010 67194
AMC-14                  
1 32708U 08011A   26147.73428900 -.00000002  00000+0  00000+0 0  9994
2 32708  23.9628  20.7255 0049976  92.2727  95.7206  1.00350219 67965
DIRECTV 11              
1 32729U 08013A   26155.90187812 -.00000113  00000+0  00000+0 0  9994
2 32729   0.0153 150.9196 0000574 236.0221  91.8989  1.00270355 45474
ICO G1                  
1 32763U 08016A   26156.25958527 -.00000161  00000+0  00000+0 0  9996
2 32763   5.5306  36.1745 0002319  24.5177 193.5847  1.00272574 66422
VINASAT-1               
1 32767U 08018A   26155.59122676 -.00000316  00000+0  00000+0 0  9998
2 32767   0.0162 309.3801 0001443 139.3983 149.0364  1.00268461 66465
STAR ONE C2             
1 32768U 08018B   26156.26517351 -.00000264  00000+0  00000+0 0  9994
2 32768   1.2102  82.5720 0002945 359.1765 202.4150  1.00269748 66535
AMOS-3                  
1 32794U 08022A   26156.14145182  .00000168  00000+0  00000+0 0  9996
2 32794   0.4237  86.4317 0001874  57.1431 191.0852  1.00470370 82214
GALAXY 18 (G-18)        
1 32951U 08024A   26156.25369191  .00000037  00000+0  00000+0 0  9998
2 32951   0.0133  44.1361 0003286  40.3118 137.5622  1.00271785 45730
ZHONGXING-9             
1 33051U 08028A   26156.18566959 -.00000236  00000+0  00000+0 0  9999
2 33051   0.7382  85.5090 0004865 329.7073 357.6194  1.00269829 65918
SKYNET 5C               
1 33055U 08030A   26156.20321699 -.00000128  00000+0  00000+0 0  9999
2 33055   3.7579  77.1817 0004267   6.3124 225.5288  1.00271161 65838
TURKSAT 3A              
1 33056U 08030B   26156.21509039  .00000158  00000+0  00000+0 0  9999
2 33056   0.0680  83.4620 0005433 341.9234 307.6785  1.00271747 52234
INTELSAT 25 (IS-25)     
1 33153U 08034A   26156.24137828 -.00000177  00000+0  00000+0 0  9999
2 33153   2.6774  80.4513 0001753  14.2506  60.8594  0.99015528 65572
ECHOSTAR 11             
1 33207U 08035A   26156.23697080 -.00000046  00000+0  00000+0 0  9995
2 33207   0.9737  84.3161 0002617 335.5739 169.2969  1.00271902 51096
SUPERBIRD-C2            
1 33274U 08038A   26156.23366492 -.00000294  00000+0  00000+0 0  9997
2 33274   2.3298  81.4131 0006057  19.6029  12.7632  1.00273322105612
